GALAXY 16 (G-16)        
1 29236U 06023A   21244.47884427 -.00000128  00000-0  00000-0 0  9992
2 29236   0.0239 139.0631 0002959  29.5678 245.5950  1.00268407 55427
EUTELSAT HOTBIRD 13B    
1 29270U 06032A   21244.23104648  .00000085  00000-0  00000-0 0  9995
2 29270   0.0688 350.0099 0002599 192.3116 254.4369  1.00272114 29763
JCSAT-3A                
1 29272U 06033A   21244.52411050 -.00000347  00000-0  00000-0 0  9990
2 29272   0.0119 201.3845 0002127 325.9685 130.2432  1.00272860 30192
SYRACUSE 3B             
1 29273U 06033B   21244.28591181 -.00000046  00000-0  00000-0 0  9994
2 29273   0.0115 131.5412 0004744  26.9111 279.9296  1.00271760 55152
KOREASAT 5 (MUGUNGWHA 5)
1 29349U 06034A   21244.52105786 -.00000360  00000-0  00000-0 0  9997
2 29349   0.0228 216.3984 0002160 340.3540  84.7708  1.00270089 23772
DIRECTV 9S              
1 29494U 06043A   21244.44744900 -.00000116  00000-0  00000-0 0  9995
2 29494   0.0326 233.4321 0003142 292.8923 234.3860  1.00274908 33838
OPTUS D1                
1 29495U 06043B   21244.52195142 -.00000113  00000-0  00000-0 0  9990
2 29495   0.0580 289.8180 0003415 236.1996 162.7823  1.00271957 54571
XM-4 (BLUES)            
1 29520U 06049A   21244.33303959 -.00000025  00000-0  00000-0 0  9993
2 29520   0.0595 289.4333 0000282 315.5423 100.3984  1.00272674 33927
BADR-4                  
1 29526U 06051A   21244.41299545  .00000142  00000-0  00000-0 0  9995
2 29526   0.0606 315.7163 0003346 259.3604 300.4017  1.00274493 33730
WILDBLUE-1              
1 29643U 06054A   21244.47640216 -.00000051  00000-0  00000-0 0  9999
2 29643   0.0173 173.6156 0001687 359.1198 228.4394  1.00272341 36241
AMC-18                  
1 29644U 06054B   21244.53155619 -.00000218  00000-0  00000-0 0  9990
2 29644   0.0613 289.9854 0002658 246.1765 273.1117  1.00273278 54005
MEASAT-3                
1 29648U 06056A   21244.21994035  .00000139  00000-0  00000-0 0  9995
2 29648   0.2246 103.7542 0001796 131.9045 232.2670  0.99904126 32932
INSAT-4B                
1 30793U 07007A   21244.51565035 -.00000192  00000-0  00000-0 0  9992
2 30793   1.5053  92.8960 0004812 127.1879  31.9800  1.00272595 24662
SKYNET 5A               
1 30794U 07007B   21244.51756913 -.00000274  00000-0  00000-0 0  9991
2 30794   1.6235  89.9787 0003617  78.1800  94.2534  1.00269429 53155
ANIK F3                 
1 31102U 07009A   21244.47491946 -.00000003  00000-0  00000-0 0  9994
2 31102   0.0163 153.2422 0001679  30.1661 209.7044  1.00271231 29013
ASTRA 1L                
1 31306U 07016A   21244.41299545  .00000118  00000-0  00000-0 0  9999
2 31306   0.1014 293.5357 0002190 293.1508 281.9674  1.00272730 27485
GALAXY 17 (G-17)        
1 31307U 07016B   21244.48041420 -.00000176  00000-0  00000-0 0  9999
2 31307   0.0193 235.7329 0003206 297.7811 249.2921  1.00271003 52253
ZHONGXING-6B            
1 31800U 07031A   21244.52158117 -.00000364  00000-0  00000+0 0  9999
2 31800   0.0116 193.6987 0003328 325.0428 125.4556  1.00272770 51926
DIRECTV 10              
1 31862U 07032A   21244.43319976 -.00000105  00000-0  00000-0 0  9994
2 31862   0.0461 304.3403 0000187 268.9494 180.6777  1.00271536 28054
SPACEWAY 3              
1 32018U 07036A   21244.44257851 -.00000155  00000-0  00000-0 0  9991
2 32018   0.0331 310.0419 0000744 264.0752 191.0883  1.00284121 29002
BSAT-3A                 
1 32019U 07036B   21244.52044734 -.00000353  00000-0  00000-0 0  9995
2 32019   0.0921 260.2161 0003625 310.0478  67.8363  1.00272152 32970
OPTUS D2                
1 32252U 07044A   21244.45972569 -.00000185  00000-0  00000-0 0  9994
2 32252   0.0494 291.5250 0003734 233.1270 133.6884  1.00274665 51024
INTELSAT 11 (IS-11)     
1 32253U 07044B   21244.34643359 -.00000271  00000-0  00000-0 0  9991
2 32253   0.0154 135.9405 0001662  37.9635 248.5456  1.00270290 50945
WGS F1 (USA 195)        
1 32258U 07046A   21244.42410404  .00000039  00000-0  00000-0 0  9991
2 32258   0.0144 108.4679 0000753 183.5983 207.4226  1.00271261 34839
STAR ONE C1             
1 32293U 07056A   21244.48556008 -.00000279  00000-0  00000-0 0  9995
2 32293   0.2535  96.7633 0002236  61.4758 292.4385  1.00272490 34223
SKYNET 5B               
1 32294U 07056B   21244.50352701  .00000139  00000-0  00000-0 0  9997
2 32294   0.8040  90.2434 0003718  73.4200  23.6053  1.00274275 50654
ASTRA 4A (SIRIUS 4)     
1 32299U 07057A   21244.37479971  .00000031  00000-0  00000-0 0  9998
2 32299   0.0568 297.3680 0002543 234.0429 309.0893  1.00273395 34132
HORIZONS 2              
1 32388U 07063B   21244.51547590 -.00000185  00000-0  00000-0 0  9994
2 32388   0.0129 138.3690 0002448  29.7152  83.2274  1.00269628 50276
THURAYA-3               
1 32404U 08001A   21244.48521666 -.00000303  00000-0  00000-0 0  9990
2 32404   3.8785  18.0547 0004183 108.3410 127.6509  1.00273568 49986
EXPRESS-AM33            
1 32478U 08003A   21244.35280052 -.00000090  00000-0  00000-0 0  9993
2 32478   0.3319  96.4710 0000148 325.6987  34.6496  1.00272367 36191
THOR 5                  
1 32487U 08006A   21244.28539100 -.00000011  00000-0  00000-0 0  9992
2 32487   0.0405 256.5245 0002335 275.4051 270.7198  1.00272226 49752
AMC-14                  
1 32708U 08011A   21244.14312816  .00000081  00000-0  00000+0 0  9997
2 32708  21.6408  41.7902 0036826  10.1136 358.1495  1.00276839 50559
DIRECTV 11              
1 32729U 08013A   21244.33526965 -.00000128  00000-0  00000-0 0  9999
2 32729   0.0049  86.1555 0000360 162.5322 113.5526  1.00272230 28042
ICO G1                  
1 32763U 08016A   21244.33649071 -.00000172  00000-0  00000-0 0  9993
2 32763   3.8067  21.3359 0002137 147.8193 199.8395  1.00271586 48990
VINASAT-1               
1 32767U 08018A   21244.52489545 -.00000331  00000-0  00000-0 0  9995
2 32767   0.0590 293.4116 0002103 255.6116 112.7741  1.00270651 49052
STAR ONE C2             
1 32768U 08018B   21244.48460067 -.00000267  00000-0  00000-0 0  9997
2 32768   0.0156 185.3344 0003100 324.7836 295.1957  1.00273518 49126
TIANLIAN 1-01           
1 32779U 08019A   21244.51442928 -.00000143  00000-0  00000-0 0  9993
2 32779   5.0887  70.3899 0026977 272.1326 263.6083  1.00271565 48926
AMOS-3                  
1 32794U 08022A   21244.35419601 -.00000037  00000-0  00000-0 0  9990
2 32794   0.0621 277.9806 0002891 236.0130 310.1346  1.00270893 64817
GALAXY 18 (G-18)        
1 32951U 08024A   21244.47404728  .00000023  00000-0  00000-0 0  9998
2 32951   0.0140 209.7813 0002874 314.7681 223.9517  1.00272926 28309
CHINASAT 9 (ZX 9)       
1 33051U 08028A   21244.51695861 -.00000250  00000-0  00000-0 0  9992
2 33051   0.0333 245.2982 0004218 288.2470  85.6528  1.00270990 48498
SKYNET 5C               
1 33055U 08030A   21244.42479991 -.00000142  00000-0  00000-0 0  9993
2 33055   0.0634 345.3447 0004876 194.9347 295.6396  1.00271696 48412
TURKSAT 3A              
1 33056U 08030B   21244.50692854  .00000144  00000-0  00000-0 0  9999
2 33056   0.0378  89.6846 0004599  53.0532  62.6218  1.00271452 34816
INTELSAT 25 (IS-25)     
1 33153U 08034A   21244.34870125 -.00000225  00000-0  00000-0 0  9993
2 33153   0.0281 232.2604 0002612 292.6323 269.8781  1.00273710 48144
BADR-6                  
1 33154U 08034B   21244.50370146  .00000142  00000-0  00000-0 0  9997
2 33154   0.0663  58.6301 0003133  93.7483  35.8150  1.00272337 48212
ECHOSTAR 11             
1 33207U 08035A   21244.43954442 -.00000059  00000-0  00000-0 0  9994
2 33207   0.0619 291.5049 0002267 240.4559 217.0945  1.00273192 33682
SUPERBIRD-C2            
1 33274U 08038A   21244.54918198 -.00000253  00000-0  00000-0 0  9997
2 33274   0.0111 189.9740 0002363  18.6313 113.9650  1.00273076 88184
AMC-21                  
1 33275U 08038B   21244.47361118  .00000034  00000-0  00000+0 0  9999
2 33275   0.0608 293.6786 0002605 244.3905 208.3863  1.00273347 47926
INMARSAT 4-F3           
1 33278U 08039A   21244.47901872 -.00000140  00000-0  00000-0 0  9990
2 33278   3.2253  16.7642 0002919 148.2360 250.3037  1.00272432 29014
NIMIQ 4                 
1 33373U 08044A   21244.53853859 -.00000222  00000-0  00000-0 0  9991
2 33373   0.0135 123.6278 0002059  27.1288 302.0405  1.00272055 47437
GALAXY 19 (G-19)        
1 33376U 08045A   21244.45093267 -.00000141  00000-0  00000-0 0  9995
2 33376   0.0157 136.5270 0003306  39.6104 230.0349  1.00272472 47351
ASTRA 1M                
1 33436U 08057A   21244.41299545  .00000117  00000-0  00000-0 0  9990
2 33436   0.0095 192.0497 0005050 320.2918 356.3037  1.00271921 28181
CIEL-2                  
1 33453U 08063A   21244.58361312  .00000056  00000-0  00000-0 0  9998
2 33453   0.0164 196.0366 0003157 347.2992 238.8769  1.00273032 46599
EUTELSAT HOTBIRD 13C    
1 33459U 08065A   21244.23104648  .00000085  00000-0  00000-0 0  9997
2 33459   0.0443  18.4682 0004687 128.0242 290.2720  1.00272162 29790
EUTELSAT 48D            
1 33460U 08065B   21244.35253885 -.00000103  00000-0  00000-0 0  9992
2 33460   0.7339  96.3800 0003210  67.9279 290.8394  1.00271810 46401
FENGYUN 2E              
1 33463U 08066A   21244.08512813 -.00000205  00000-0  00000-0 0  9998
2 33463   5.2711  66.8386 0002638 332.7489  58.0090  1.00276464 46540
EXPRESS-AM44            
1 33595U 09007A   21244.35280051 -.00000091  00000-0  00000-0 0  9999
2 33595   0.0272 279.8577 0000316   3.3498 173.5242  1.00272042 46013
NSS-9                   
1 33749U 09008A   21244.54142157  .00000069  00000-0  00000-0 0  9990
2 33749   0.0560 299.0010 0002056 226.4564 193.4286  1.00272754 45989
EUTELSAT 33E            
1 33750U 09008B   21244.36438476  .00000153  00000-0  00000-0 0  9998
2 33750   0.0723  50.4268 0003780 117.0926 337.5543  1.00278606 45909
TELSTAR 11N             
1 34111U 09009A   21244.34748020 -.00000253  00000-0  00000-0 0  9990
2 34111   0.0146 160.8451 0002355 347.9169 279.4925  1.00271712 28685
